{
  "type": "FeatureCollection",
  "features": [
    {
      "type": "Feature",
      "properties": {
        "norad_id": 24946,
        "name": "IRIDIUM 33",
        "group": "iridium-33-debris",
        "lat": 13.398586029732794,
        "lon": 67.01905122396403,
        "alt_km": 781.4165284892106,
        "timestamp": "2025-12-17T15:50:10.165717+00:00",
        "meta_object_name": "IRIDIUM 33",
        "meta_object_id": "1997-051C",
        "meta_epoch": "2025-12-17T05:43:57.943776",
        "meta_mean_motion": 14.350406,
        "meta_eccentricity": 0.00075717,
        "meta_inclination": 86.3868,
        "meta_ra_of_asc_node": 66.3333,
        "meta_arg_of_pericenter": 184.7993,
        "meta_mean_anomaly": 175.3132,
        "meta_ephemeris_type": 0,
        "meta_classification_type": "U",
        "meta_norad_cat_id": 24946,
        "meta_element_set_no": 999,
        "meta_rev_at_epoch": 47899,
        "meta_bstar": 9.4687526e-05,
        "meta_mean_motion_dot": 2.89e-06,
        "meta_mean_motion_ddot": 0,
        "tle_line1": "1 24946U 97051C   25351.23886509  .00000289  00000+0  94688-4 0  9991",
        "tle_line2": "2 24946  86.3868  66.3333 0007571 184.7993 175.3132 14.35040600478993"
      },
      "geometry": {
        "type": "Point",
        "coordinates": [
          67.01905122396403,
          13.398586029732794
        ]
      }
    },
    {
      "type": "Feature",
      "properties": {
        "norad_id": 33773,
        "name": "IRIDIUM 33 DEB",
        "group": "iridium-33-debris",
        "lat": 63.76201155419873,
        "lon": -128.8322485392783,
        "alt_km": 732.7605282020559,
        "timestamp": "2025-12-17T15:50:10.165769+00:00",
        "meta_object_name": "IRIDIUM 33 DEB",
        "meta_object_id": "1997-051L",
        "meta_epoch": "2025-12-17T06:58:52.606560",
        "meta_mean_motion": 14.43267007,
        "meta_eccentricity": 0.0012884,
        "meta_inclination": 86.4007,
        "meta_ra_of_asc_node": 58.661,
        "meta_arg_of_pericenter": 133.0691,
        "meta_mean_anomaly": 227.159,
        "meta_ephemeris_type": 0,
        "meta_classification_type": "U",
        "meta_norad_cat_id": 33773,
        "meta_element_set_no": 999,
        "meta_rev_at_epoch": 88413,
        "meta_bstar": 0.00025937405,
        "meta_mean_motion_dot": 8.93e-06,
        "meta_mean_motion_ddot": 0,
        "tle_line1": "1 33773U 97051L   25351.29088665  .00000893  00000+0  25937-3 0  9993",
        "tle_line2": "2 33773  86.4007  58.6610 0012884 133.0691 227.1590 14.43267007884136"
      },
      "geometry": {
        "type": "Point",
        "coordinates": [
          -128.8322485392783,
          63.76201155419873
        ]
      }
    },
    {
      "type": "Feature",
      "properties": {
        "norad_id": 33775,
        "name": "IRIDIUM 33 DEB",
        "group": "iridium-33-debris",
        "lat": 11.904360192508115,
        "lon": -133.3149548366582,
        "alt_km": 745.7372473714786,
        "timestamp": "2025-12-17T15:50:10.165788+00:00",
        "meta_object_name": "IRIDIUM 33 DEB",
        "meta_object_id": "1997-051N",
        "meta_epoch": "2025-12-17T05:21:05.372640",
        "meta_mean_motion": 14.41477949,
        "meta_eccentricity": 0.00147541,
        "meta_inclination": 86.3634,
        "meta_ra_of_asc_node": 47.6397,
        "meta_arg_of_pericenter": 141.0543,
        "meta_mean_anomaly": 281.2512,
        "meta_ephemeris_type": 0,
        "meta_classification_type": "U",
        "meta_norad_cat_id": 33775,
        "meta_element_set_no": 999,
        "meta_rev_at_epoch": 88205,
        "meta_bstar": 0.00025635095,
        "meta_mean_motion_dot": 8.52e-06,
        "meta_mean_motion_ddot": 0,
        "tle_line1": "1 33775U 97051N   25351.22297885  .00000852  00000+0  25635-3 0  9994",
        "tle_line2": "2 33775  86.3634  47.6397 0014754 141.0543 281.2512 14.41477949882056"
      },
      "geometry": {
        "type": "Point",
        "coordinates": [
          -133.3149548366582,
          11.904360192508115
        ]
      }
    },
    {
      "type": "Feature",
      "properties": {
        "norad_id": 33776,
        "name": "IRIDIUM 33 DEB",
        "group": "iridium-33-debris",
        "lat": -19.682127908454085,
        "lon": 77.42096307510795,
        "alt_km": 779.8671376871962,
        "timestamp": "2025-12-17T15:50:10.165802+00:00",
        "meta_object_name": "IRIDIUM 33 DEB",
        "meta_object_id": "1997-051P",
        "meta_epoch": "2025-12-17T07:53:39.765408",
        "meta_mean_motion": 14.38243274,
        "meta_eccentricity": 0.00149006,
        "meta_inclination": 86.4038,
        "meta_ra_of_asc_node": 78.8489,
        "meta_arg_of_pericenter": 175.3701,
        "meta_mean_anomaly": 252.7383,
        "meta_ephemeris_type": 0,
        "meta_classification_type": "U",
        "meta_norad_cat_id": 33776,
        "meta_element_set_no": 999,
        "meta_rev_at_epoch": 88148,
        "meta_bstar": 0.00023505952,
        "meta_mean_motion_dot": 7.35e-06,
        "meta_mean_motion_ddot": 0,
        "tle_line1": "1 33776U 97051P   25351.32893247  .00000735  00000+0  23506-3 0  9995",
        "tle_line2": "2 33776  86.4038  78.8489 0014900 175.3701 252.7383 14.38243274881486"
      },
      "geometry": {
        "type": "Point",
        "coordinates": [
          77.42096307510795,
          -19.682127908454085
        ]
      }
    },
    {
      "type": "Feature",
      "properties": {
        "norad_id": 33777,
        "name": "IRIDIUM 33 DEB",
        "group": "iridium-33-debris",
        "lat": 75.19362327347251,
        "lon": 46.926780613867216,
        "alt_km": 703.610613865596,
        "timestamp": "2025-12-17T15:50:10.165816+00:00",
        "meta_object_name": "IRIDIUM 33 DEB",
        "meta_object_id": "1997-051Q",
        "meta_epoch": "2025-12-17T03:56:27.308544",
        "meta_mean_motion": 14.55646352,
        "meta_eccentricity": 0.00054634,
        "meta_inclination": 86.3784,
        "meta_ra_of_asc_node": 33.2791,
        "meta_arg_of_pericenter": 228.9297,
        "meta_mean_anomaly": 131.1439,
        "meta_ephemeris_type": 0,
        "meta_classification_type": "U",
        "meta_norad_cat_id": 33777,
        "meta_element_set_no": 999,
        "meta_rev_at_epoch": 88598,
        "meta_bstar": 0.00062307302,
        "meta_mean_motion_dot": 2.74e-05,
        "meta_mean_motion_ddot": 0,
        "tle_line1": "1 33777U 97051Q   25351.16420496  .00002740  00000+0  62307-3 0  9990",
        "tle_line2": "2 33777  86.3784  33.2791 0005463 228.9297 131.1439 14.55646352885988"
      },
      "geometry": {
        "type": "Point",
        "coordinates": [
          46.926780613867216,
          75.19362327347251
        ]
      }
    },
    {
      "type": "Feature",
      "properties": {
        "norad_id": 33850,
        "name": "IRIDIUM 33 DEB",
        "group": "iridium-33-debris",
        "lat": 19.04760092756687,
        "lon": -153.20172096213528,
        "alt_km": 742.9186081766366,
        "timestamp": "2025-12-17T15:50:10.165829+00:00",
        "meta_object_name": "IRIDIUM 33 DEB",
        "meta_object_id": "1997-051T",
        "meta_epoch": "2025-12-17T08:28:55.963200",
        "meta_mean_motion": 14.42156138,
        "meta_eccentricity": 0.00126933,
        "meta_inclination": 86.3414,
        "meta_ra_of_asc_node": 28.1958,
        "meta_arg_of_pericenter": 147.0809,
        "meta_mean_anomaly": 223.8658,
        "meta_ephemeris_type": 0,
        "meta_classification_type": "U",
        "meta_norad_cat_id": 33850,
        "meta_element_set_no": 999,
        "meta_rev_at_epoch": 88219,
        "meta_bstar": 0.00027471389,
        "meta_mean_motion_dot": 9.24e-06,
        "meta_mean_motion_ddot": 0,
        "tle_line1": "1 33850U 97051T   25351.35342550  .00000924  00000+0  27471-3 0  9992",
        "tle_line2": "2 33850  86.3414  28.1958 0012693 147.0809 223.8658 14.42156138882197"
      },
      "geometry": {
        "type": "Point",
        "coordinates": [
          -153.20172096213528,
          19.04760092756687
        ]
      }
    },
    {
      "type": "Feature",
      "properties": {
        "norad_id": 33853,
        "name": "IRIDIUM 33 DEB",
        "group": "iridium-33-debris",
        "lat": 40.11680858607278,
        "lon": 164.2739692570253,
        "alt_km": 867.0677718778752,
        "timestamp": "2025-12-17T15:50:10.165843+00:00",
        "meta_object_name": "IRIDIUM 33 DEB",
        "meta_object_id": "1997-051W",
        "meta_epoch": "2025-12-16T23:58:17.677344",
        "meta_mean_motion": 13.99087192,
        "meta_eccentricity": 0.02070549,
        "meta_inclination": 85.9997,
        "meta_ra_of_asc_node": 347.9438,
        "meta_arg_of_pericenter": 222.6309,
        "meta_mean_anomaly": 192.0216,
        "meta_ephemeris_type": 0,
        "meta_classification_type": "U",
        "meta_norad_cat_id": 33853,
        "meta_element_set_no": 999,
        "meta_rev_at_epoch": 85405,
        "meta_bstar": 0.0014446517,
        "meta_mean_motion_dot": 2.528e-05,
        "meta_mean_motion_ddot": 0,
        "tle_line1": "1 33853U 97051W   25350.99881571  .00002528  00000+0  14447-2 0  9995",
        "tle_line2": "2 33853  85.9997 347.9438 0207054 222.6309 192.0216 13.99087192854053"
      },
      "geometry": {
        "type": "Point",
        "coordinates": [
          164.2739692570253,
          40.11680858607278
        ]
      }
    }
  ]
}